CALSPHERE 1             
1 00900U 64063C   21053.63214123  .00000276  00000-0  28624-3 0  9991
2 00900  90.1596  32.4924 0028857  28.1867  36.7256 13.73487112804791
CALSPHERE 2             
1 00902U 64063E   21053.47259956  .00000042  00000-0  49704-4 0  9992
2 00902  90.1698  35.2603 0020315  99.9544  18.4716 13.52691804593885
LCS 1                   
1 01361U 65034C   21053.56900051 -.00000003  00000-0 -14485-2 0  9995
2 01361  32.1411 104.6860 0009476 333.1954  26.8053  9.89298793 17707
TEMPSAT 1               
1 01512U 65065E   21053.52216650  .00000029  00000-0  41755-4 0  9996
2 01512  89.8845 223.2341 0068234 298.8781 125.5691 13.33435040701414
CALSPHERE 4A            
1 01520U 65065H   21053.46660637  .00000036  00000-0  51405-4 0  9997
2 01520  90.0224 129.8244 0070728 175.3704 314.6932 13.35835282703578
OPS 5712 (P/L 160)      
1 02826U 67053A   21053.55052762  .00000637  00000-0  18252-3 0  9999
2 02826  69.9296 333.5424 0008920 286.2328  73.7823 14.49381620783179
OPS 5712 (P/L 153)      
1 02874U 67053H   21053.41811549 -.00000006  00000-0  34465-4 0  9999
2 02874  69.9750 313.3054 0008808 213.6574 146.3973 13.96363364735844
SURCAL 150B             
1 02909U 67053J   21053.56396343  .00000938  00000-0  19968-3 0  9997
2 02909  69.9495 345.5076 0005378 304.9757  55.0877 14.62160526793433
RIGIDSPHERE 2 (LCS 4)   
1 05398U 71067E   21053.55921808  .00000190  00000-0  60273-4 0  9997
2 05398  87.6296 155.4219 0064358 166.3632 193.9324 14.33962983595485
COSMOS 2493 (SKRL-756 1)
1 39490U 13078A   21053.48709563  .00000337  00000-0  33397-4 0  9999
2 39490  82.4213 333.8305 0015887 247.5173 112.4362 14.88734646388302
COSMOS 2494 (SKRL-756 2)
1 39491U 13078B   21053.51237159  .00000340  00000-0  32446-4 0  9999
2 39491  82.4210 328.6024 0020824 226.1368 133.8130 14.90126283388783
